{
    "links": {
        "self": "http://www.neowsapp.com/rest/v1/neo/3752014?api_key=iIulBulltgU6a56xZRHN4H3l9WmuAYTsLGpBGhQ2"
    },
    "id": "3752014",
    "neo_reference_id": "3752014",
    "name": "(2016 GY221)",
    "designation": "2016 GY221",
    "nasa_jpl_url": "http://ssd.jpl.nasa.gov/sbdb.cgi?sstr=3752014",
    "absolute_magnitude_h": 24.5,
    "estimated_diameter": {
        "kilometers": {
            "estimated_diameter_min": 0.0334622374,
            "estimated_diameter_max": 0.0748238376
        },
        "meters": {
            "estimated_diameter_min": 33.4622374455,
            "estimated_diameter_max": 74.8238376074
        },
        "miles": {
            "estimated_diameter_min": 0.0207924639,
            "estimated_diameter_max": 0.0464933628
        },
        "feet": {
            "estimated_diameter_min": 109.7842471007,
            "estimated_diameter_max": 245.4850393757
        }
    },
    "is_potentially_hazardous_asteroid": false,
    "close_approach_data": [
        {
            "close_approach_date": "2002-05-26",
            "close_approach_date_full": "2002-May-26 15:22",
            "epoch_date_close_approach": 1022426520000,
            "relative_velocity": {
                "kilometers_per_second": "16.876487112",
                "kilometers_per_hour": "60755.3536030765",
                "miles_per_hour": "37751.0140207561"
            },
            "miss_distance": {
                "astronomical": "0.4457413935",
                "lunar": "173.3934020715",
                "kilometers": "66681963.038431845",
                "miles": "41434250.500355661"
            },
            "orbiting_body": "Earth"
        },
        {
            "close_approach_date": "2009-05-09",
            "close_approach_date_full": "2009-May-09 05:00",
            "epoch_date_close_approach": 1241845200000,
            "relative_velocity": {
                "kilometers_per_second": "11.0233667683",
                "kilometers_per_hour": "39684.1203657551",
                "miles_per_hour": "24658.1691239326"
            },
            "miss_distance": {
                "astronomical": "0.2092828885",
                "lunar": "81.4110436265",
                "kilometers": "31308274.347047495",
                "miles": "19454059.582525631"
            },
            "orbiting_body": "Earth"
        },
        {
            "close_approach_date": "2016-04-19",
            "close_approach_date_full": "2016-Apr-19 15:42",
            "epoch_date_close_approach": 1461080520000,
            "relative_velocity": {
                "kilometers_per_second": "8.1820706",
                "kilometers_per_hour": "29455.4541598483",
                "miles_per_hour": "18302.4737250458"
            },
            "miss_distance": {
                "astronomical": "0.0389506817",
                "lunar": "15.1518151813",
                "kilometers": "5826939.017367979",
                "miles": "3620692.0116729502"
            },
            "orbiting_body": "Earth"
        },
        {
            "close_approach_date": "2023-03-27",
            "close_approach_date_full": "2023-Mar-27 13:57",
            "epoch_date_close_approach": 1679925420000,
            "relative_velocity": {
                "kilometers_per_second": "11.7416312561",
                "kilometers_per_hour": "42269.8725218246",
                "miles_per_hour": "26264.854956686"
            },
            "miss_distance": {
                "astronomical": "0.279155154",
                "lunar": "108.591354906",
                "kilometers": "41761016.43792198",
                "miles": "25949092.339124124"
            },
            "orbiting_body": "Earth"
        }
    ],
    "orbital_data": {
        "orbit_id": "11",
        "orbit_determination_date": "2018-02-10 07:07:51",
        "first_observation_date": "2016-04-10",
        "last_observation_date": "2016-05-05",
        "data_arc_in_days": 25,
        "observations_used": 101,
        "orbit_uncertainty": "7",
        "minimum_orbit_intersection": ".0356799",
        "jupiter_tisserand_invariant": "4.580",
        "epoch_osculation": "2459000.5",
        "eccentricity": ".282559885365159",
        "semi_major_axis": "1.446358689244403",
        "inclination": "13.65320377021191",
        "ascending_node_longitude": "31.88027785786881",
        "orbital_period": "635.3491312433964",
        "perihelion_distance": "1.037675743814603",
        "perihelion_argument": "169.9106462626023",
        "aphelion_distance": "1.855041634674203",
        "perihelion_time": "2458760.636165852592",
        "mean_anomaly": "135.9110700664304",
        "mean_motion": ".5666176001460327",
        "equinox": "J2000",
        "orbit_class": {
            "orbit_class_type": "AMO",
            "orbit_class_description": "Near-Earth asteroid orbits similar to that of 1221 Amor",
            "orbit_class_range": "1.017 AU < q (perihelion) < 1.3 AU"
        }
    },
    "is_sentry_object": false
}